PERSEUS-M1              
1 40039U 14033AF  26176.39892595  .00002013  00000+0  18639-3 0  9994
2 40039  97.9647 120.6655 0009806 270.4226  89.5870 14.95658547651868
POLYITAN-1              
1 40042U 14033AJ  26176.53567551  .00024146  00000+0  74522-3 0  9999
2 40042  98.0944 203.5873 0008871 118.4469 241.7666 15.33533321654872
TIGRISAT                
1 40043U 14033AK  26175.93116506  .00001731  00000+0  20392-3 0  9994
2 40043  97.7840 325.7656 0050233  50.4069 310.1565 14.85187769646776
AEROCUBE 6A             
1 40045U 14033AM  26176.43918374  .00004995  00000+0  41986-3 0  9992
2 40045  97.7234 343.3017 0038285 349.4286  10.6127 14.98172989647855
AEROCUBE 6B             
1 40046U 14033AN  26176.43348021  .00005192  00000+0  42014-3 0  9992
2 40046  97.7233 343.1047 0037805 340.5083  19.4692 14.99635963647996
CANX-4                  
1 40055U 14034C   26176.52812211  .00000895  00000+0  12206-3 0  9995
2 40055  98.3113  52.1470 0012524 350.6546   9.4430 14.81278559645761
CANX-5                  
1 40056U 14034D   26176.39136021  .00000880  00000+0  12008-3 0  9993
2 40056  98.3115  52.0493 0012532 351.3402   8.7591 14.81295407636554
UKUBE-1                 
1 40074U 14037F   26176.56399136  .00010578  00000+0  59185-3 0  9995
2 40074  98.4236 180.7162 0002993 120.0647 240.0878 15.13673533649822
BRITE-PL2 (HEWELIUSZ)   
1 40119U 14049B   26176.54091931  .00001913  00000+0  18180-3 0  9991
2 40119  97.9105 288.6055 0015424  83.0154 277.2819 14.94624267642697
AEROCUBE 5C             
1 40965U 15058B   26176.48529596  .00001921  00000+0  17759-3 0  9997
2 40965  64.7654 236.7748 0131151  60.0454 301.3604 14.91484743366890
AEROCUBE 7              
1 40966U 15058C   26176.52476385  .00003433  00000+0  27909-3 0  9998
2 40966  64.7609 218.6998 0120888  58.3877 302.8967 14.95769117367200
FOX-1A (AO-85)          
1 40967U 15058D   26176.53558108  .00002298  00000+0  21215-3 0  9996
2 40967  64.7749 253.0389 0130941  53.3453 307.9612 14.91002473114810
SINOD-D 1               
1 40968U 15058E   26176.50171264  .00003264  00000+0  26556-3 0  9995
2 40968  64.7740 232.8740 0119604  49.7938 311.3569 14.95949500117906
SNAP-3 ALICE            
1 40970U 15058G   26176.43829839  .00171201  00000+0  18764-2 0  9996
2 40970  64.7505  75.3722 0025323   7.0056 353.1440 15.62071198118176
LMRST-SAT               
1 40971U 15058H   26176.56010861  .00001837  00000+0  17381-3 0  9990
2 40971  64.7744 249.3168 0132543  55.3670 305.9855 14.90620296114800
SNAP-3 EDDIE            
1 40972U 15058J   26176.03782694  .00148087  00000+0  15598-2 0  9999
2 40972  64.7417  67.4251 0025739  10.8094 349.3601 15.63150797120256
PROPCUBE 3              
1 40973U 15058K   26176.50820014  .00002901  00000+0  24556-3 0  9990
2 40973  64.7673 226.5370 0124481  56.6244 304.6708 14.94295429116049
BISONSAT                
1 40974U 15058L   26176.27761047  .00017605  00000+0  83934-3 0  9997
2 40974  64.7573 147.4833 0080028  43.9823 316.7632 15.16377580116846
SNAP-3 JIMI             
1 40975U 15058M   26176.37700995  .00006176  00000+0  42351-3 0  9993
2 40975  64.7632 193.8587 0106611  52.0629 309.0065 15.02366223115454
PROPCUBE 1 (FLORA)      
1 40976U 15058N   26176.52272400  .00001931  00000+0  18904-3 0  9997
2 40976  64.7738 269.4016 0131189  57.6889 303.6848 14.89254235117506
SINOD-D 3               
1 40977U 15058P   26176.54121598  .00003090  00000+0  26507-3 0  9997
2 40977  64.7721 249.7315 0119742  54.8095 306.4162 14.94059202116008
HORYU-4                 
1 41340U 16012D   26175.92351499  .00887715  38476-3  12685-2 0  9996
2 41340  30.9835  21.9003 0008451 319.1648  40.8382 16.04340254572050
RAVAN                   
1 41849U 16067B   26176.21608122  .00062417  00000+0  91273-3 0  9994
2 41849  97.9880  66.7191 0003047   3.7244 356.4031 15.55412182528947
CELTEE 1                
1 41850U 16067C   26176.56917891  .00006317  00000+0  29894-3 0  9997
2 41850  98.0670  43.7080 0001423 129.0857 231.0503 15.19757723527155
OPTICUBE 04             
1 41851U 16067D   26176.56311767  .00002040  00000+0  13067-3 0  9992
2 41851  98.0695  29.2835 0017027  89.4863 270.8316 15.09692566526438
AEROCUBE 8D             
1 41852U 16067E   26176.55737293  .00008849  00000+0  36294-3 0  9998
2 41852  98.0681  47.3655 0005000 103.2340 256.9453 15.24505591527344
AEROCUBE 8C             
1 41853U 16067F   26176.58098716  .00009645  00000+0  39225-3 0  9994
2 41853  98.0550  44.6077 0006130  46.0158 314.1583 15.24756224527346
CORVUS BC2              
1 42846U 17042X   26176.43203759  .00003195  00000+0  22071-3 0  9995
2 42846  97.4072 337.4619 0014762  85.1086 275.1826 15.06345732488306
CORVUS BC1              
1 42847U 17042Y   26176.42573224  .00002826  00000+0  19494-3 0  9997
2 42847  97.4098 338.2753 0013256  64.2812 295.9783 15.06508441488338
MAKERSAT 0              
1 43016U 17073D   26175.42911744  .00015733  00000+0  42578-3 0  9992
2 43016  97.4622  58.0052 0104847 246.7219 112.2959 15.32301022467578
